INTELSAT 18 (IS-18)     
1 37834U 11056A   25326.58378108  .00000075  00000+0  00000+0 0  9996
2 37834   0.0175 284.5593 0001600 332.4834 194.9594  1.00273188 51748
EUTELSAT 16A            
1 37836U 11057A   25326.51822059  .00000125  00000+0  00000+0 0  9997
2 37836   0.0608 357.0839 0005964 251.2031  16.0481  1.00269470  5257
VIASAT-1                
1 37843U 11059A   25325.85025264 -.00000002  00000+0  00000+0 0  9991
2 37843   0.0161 302.1740 0001943 289.7452  20.1698  1.00270623 45248
ASIASAT 7               
1 37933U 11069A   25326.68375810 -.00000312  00000+0  00000+0 0  9993
2 37933   0.0064 336.3357 0001196 265.6023 171.6459  1.00269120 42783
BEIDOU-2 IGSO-5         
1 37948U 11073A   25326.31982042 -.00000164  00000+0  00000+0 0  9990
2 37948  48.0596 274.1093 0108090 222.2069 132.3415  1.00251872 51058
LUCH-5A                 
1 37951U 11074B   25326.61953454 -.00000030  00000+0  00000+0 0  9995
2 37951   8.2262  76.8830 0005393 166.9677 207.9653  1.00273608 50982
NIGCOMSAT 1R            
1 38014U 11077A   25326.52359396  .00000166  00000+0  00000+0 0  9993
2 38014   0.0715  92.9769 0002697 205.0402 354.7580  1.00273925 50882
WGS F4 (USA 233)        
1 38070U 12003A   25325.96196662  .00000000  00000+0  00000+0 0  9994
2 38070   0.0147 335.9505 0000120   0.4569 159.5057  1.00267791 42077
SES-4                   
1 38087U 12007A   25326.18030788 -.00000147  00000+0  00000+0 0  9990
2 38087   0.0247  15.8248 0002558 235.7959 212.7279  1.00268299 50157
BEIDOU-2 G5             
1 38091U 12008A   25326.68687711  .00000078  00000+0  00000+0 0  9997
2 38091   3.0567  70.7715 0011502 225.1698  71.9848  1.00270313 50293
MUOS-1                  
1 38093U 12009A   25326.48705187 -.00000108  00000+0  00000+0 0  9991
2 38093   5.0551  47.1427 0050355 359.3769  90.6115  1.00272580 50378
INTELSAT 22 (IS-22)     
1 38098U 12011A   25326.52948733 -.00000037  00000+0  00000+0 0  9991
2 38098   0.0056  42.9072 0001852 207.9312  73.6596  1.00270863  5115
APSTAR-7                
1 38107U 12013A   25326.67300821 -.00000080  00000+0  00000+0 0  9998
2 38107   0.0207  59.0413 0002271 201.4431 120.2030  1.00271370 49731
YAHSAT 1B               
1 38245U 12016A   25326.02523365  .00000148  00000+0  00000+0 0  9997
2 38245   0.0691 100.0196 0002769 158.7244 219.2265  1.00271177 43530
AEHF-2 (USA 235)        
1 38254U 12019A   25326.08384318 -.00000115  00000+0  00000+0 0  9994
2 38254   6.1711  58.9551 0003773 188.1516 187.9510  1.00272447  4915
JCSAT-13                
1 38331U 12023A   25325.82615916 -.00000334  00000+0  00000+0 0  9990
2 38331   0.0549 100.4222 0002184 143.5791 238.5101  1.00273612 49469
VINASAT-2               
1 38332U 12023B   25326.54127405 -.00000307  00000+0  00000+0 0  9992
2 38332   0.0204   4.3903 0002243 232.9009 151.2128  1.00272709 44581
NIMIQ 6                 
1 38342U 12026A   25326.49707378 -.00000152  00000+0  00000+0 0  9991
2 38342   0.0314  56.3240 0002608 180.3519 272.9260  1.00272020 48344
ZHONGXING-2A            
1 38352U 12028A   25326.67365936 -.00000272  00000+0  00000+0 0  9997
2 38352   0.9175  86.7976 0001734 167.1615 148.7602  1.00270701 49223
INTELSAT 19 (IS-19)     
1 38356U 12030A   25325.34419889 -.00000034  00000+0  00000+0 0  9990
2 38356   0.0114 323.9636 0002895 278.9677 107.6007  1.00271915 48363
ECHOSTAR 17             
1 38551U 12035A   25325.85189932 -.00000054  00000+0  00000+0 0  9993
2 38551   0.0179 326.8042 0002145 267.9326  25.9624  1.00271627 48986
METEOSAT-10 (MSG-3)     
1 38552U 12035B   25326.08713653  .00000014  00000+0  00000+0 0  9998
2 38552   4.1782  61.7606 0000173 242.0067 149.0363  1.00271601 48786
SES-5                   
1 38652U 12036A   25326.23081318  .00000056  00000+0  00000+0 0  9999
2 38652   0.0573 302.7381 0001785 291.0744 275.7466  1.00272142 42397
INTELSAT 20 (IS-20)     
1 38740U 12043A   25326.52879398 -.00000003  00000+0  00000+0 0  9993
2 38740   0.0062 322.3347 0003316 218.2865 140.0214  1.00270600 48674
HYLAS 2                 
1 38741U 12043B   25326.50080047 -.00000237  00000+0  00000+0 0  9996
2 38741   1.8910  83.6130 0003676 178.9319 266.9921  1.00273613 48702
INTELSAT 21 (IS-21)     
1 38749U 12045A   25326.43233338 -.00000263  00000+0  00000+0 0  9990
2 38749   0.0408  84.0411 0001593 149.4479 285.8501  1.00272088 48457
ASTRA 2F                
1 38778U 12051A   25323.31039019  .00000170  00000+0  00000+0 0  9999
2 38778   0.0517 258.7650 0004189 329.9276 329.8460  1.00271672 39034
GSAT-10                 
1 38779U 12051B   25326.03225369 -.00000143  00000+0  00000+0 0  9998
2 38779   0.0605 263.0509 0003302 228.7362  24.1202  1.00271811 48026
INTELSAT 23 (IS-23)     
1 38867U 12057A   25326.22977509 -.00000263  00000+0  00000+0 0  9996
2 38867   0.0114 349.4777 0001595 280.5520 181.2093  1.00270231 47880
BEIDOU-2 G6             
1 38953U 12059A   25326.46050022 -.00000155  00000+0  00000+0 0  9992
2 38953   3.8952  75.7019 0007059 296.1211 299.6936  1.00274026 47837
LUCH-5B                 
1 38977U 12061A   25326.13217590 -.00000120  00000+0  00000+0 0  9992
2 38977  10.0352  51.8962 0007150 183.7251 217.0547  1.00270952 47539
YAMAL 300K              
1 38978U 12061B   25326.55141412  .00000093  00000+0  00000+0 0  9996
2 38978   0.0166 300.6160 0000489 255.7790 246.8852  1.00271855 47557
STAR ONE C3             
1 38991U 12062A   25326.50028047 -.00000228  00000+0  00000+0 0  9996
2 38991   0.0159 286.1986 0001945 319.3270 281.3323  1.00273863 47699
EUTELSAT 21B            
1 38992U 12062B   25326.51943392  .00000151  00000+0  00000+0 0  9991
2 38992   0.0685 356.4545 0003292 256.4316  17.4870  1.00269243 47754
ECHOSTAR 16             
1 39008U 12065A   25326.07491646  .00000000  00000+0  00000+0 0  9997
2 39008   0.0136 329.1685 0002065 275.5632 142.0473  1.00268169 47554
ZHONGXING-12            
1 39017U 12067A   25326.67517488 -.00000185  00000+0  00000+0 0  9993
2 39017   0.0475 103.1632 0003155 141.8211 147.5055  1.00271675 47430
EUTELSAT 70B            
1 39020U 12069A   25326.52914065 -.00000022  00000+0  00000+0 0  9995
2 39020   0.0660   8.5344 0004472 227.3164  86.9172  1.00271721 47436
YAMAL 402               
1 39022U 12070A   25326.66876152  .00000107  00000+0  00000+0 0  9991
2 39022   0.7329  86.9666 0004144 155.3653 115.2457  1.00271089 47320
SKYNET 5D               
1 39034U 12075A   25326.52567397  .00000120  00000+0  00000+0 0  9997
2 39034   0.0777   1.0364 0004313 242.4521  60.2863  1.00272465 47088
MEXSAT 3                
1 39035U 12075B   25326.52271537 -.00000004  00000+0  00000+0 0  9998
2 39035   0.0080 327.9042 0002338 259.5364 267.7246  1.00271345  4985
TDRS 11                 
1 39070U 13004A   25326.52949437  .00000099  00000+0  00000+0 0  9994
2 39070   3.2298  27.2088 0000981  12.2555  38.4796  1.00271335 44625
AMAZONAS 3              
1 39078U 13006A   25326.50305382 -.00000261  00000+0  00000+0 0  9999
2 39078   0.0281 185.3148 0005110  43.6859 312.8689  1.00271270 42847
AZERSPACE 1             
1 39079U 13006B   25326.52428729  .00000154  00000+0  00000+0 0  9993
2 39079   0.0459  89.2782 0001328 164.7353  42.4910  1.00272617 46733
SBIRS GEO-2 (USA 241)   
1 39120U 13011A   25326.51989087 -.00000266  00000+0  00000+0 0  9999
2 39120   4.0439  52.1070 0002254 193.4828 313.5381  1.00271342 46464
EUTELSAT 117 WEST A     
1 39122U 13012A   25326.52783315  .00000008  00000+0  00000+0 0  9992
2 39122   0.0139 332.9361 0002671 262.8741 259.1949  1.00271394 46360
ANIK G1                 
1 39127U 13014A   25326.49386709 -.00000053  00000+0  00000+0 0  9992
2 39127   0.0166 332.7272 0003265 273.0734 246.4438  1.00271060 46182
ZHONGXING-11            
1 39157U 13020A   25326.67725490 -.00000270  00000+0  00000+0 0  9997
2 39157   0.0164  16.2736 0002047 232.7948 154.5640  1.00274857 45829
EUTELSAT 7B             
1 39163U 13022A   25326.51640058  .00000069  00000+0  00000+0 0  9990
2 39163   0.0720  11.7821 0003598 302.9791 299.9114  1.00270953 45886
WGS F5 (USA 243)        
1 39168U 13024A   25326.21937310  .00000000  00000+0  00000+0 0  9999
2 39168   0.0134 325.9807 0000389 120.7979   1.1588  1.00269765 45105
SES-6                   
1 39172U 13026A   25326.50712719 -.00000239  00000+0  00000+0 0  9997
2 39172   0.0200 332.2401 0002293 265.8960 325.6973  1.00271941 45653
IRNSS-1A                
1 39199U 13034A   25324.86780932  .00000075  00000+0  00000+0 0  9991
2 39199  35.2602  66.8688 0021918 184.9318 175.7515  1.00275589 45285
MUOS-2                  
1 39206U 13036A   25326.54985411  .00000025  00000+0  00000+0 0  9993
2 39206   4.5861  45.0052 0052641 179.8202 210.2918  1.00221282 45122
ALPHASAT                
1 39215U 13038A   25325.80665904  .00000154  00000+0  00000+0 0  9998
2 39215   2.9632   3.0795 0001844 222.9654 150.1437  1.00272005 41941
INSAT-3D                
1 39216U 13038B   25326.54084072 -.00000318  00000+0  00000+0 0  9995
2 39216   1.3896  85.2362 0000827 159.4805 141.3145  1.00269445 45004
WGS F6 (USA 244)        
1 39222U 13041A   25324.63351866  .00000110  00000+0  00000+0 0  9991
2 39222   0.0177 342.4651 0000206 248.5066 281.8211  1.00274541 43979
ES'HAIL 1               
1 39233U 13044A   25326.23488654  .00000165  00000+0  00000+0 0  9990
2 39233   0.0518   0.8108 0002262 241.3261 289.4148  1.00270421 44555
GSAT-7                  
1 39234U 13044B   25326.52983399 -.00000056  00000+0  00000+0 0  9999
2 39234   0.1028  90.1694 0007230 177.9020  58.4588  1.00272400 43181
AMOS-4                  
1 39237U 13045A   25326.09996329  .00000029  00000+0  00000+0 0  9991
2 39237   0.0441 110.7306 0003092 164.1612 247.4647  1.00273074 44880
AEHF-3 (USA 246)        
1 39256U 13050A   25326.54169084  .00000049  00000+0  00000+0 0  9990
2 39256   4.7807  69.0595 0095096 182.7450 240.7480  1.00273398 43581
